[
  {
    "areaid": "1703206",
    "regionid": "1703",
    "areacode": "206",
    "areatype": null,
    "nameRu": "Балыкчинский район",
    "nameUz": "Baliqchi tumani",
    "admincenterRu": "гп Баликчи",
    "admincenterUz": "Baliqchi shaharchasi",
    "rem": null,
    "isdeleted": 0,
    "areacode2": "03"
  },
  {
    "areaid": "1703209",
    "regionid": "1703",
    "areacode": "209",
    "areatype": null,
    "nameRu": "Бозский район",
    "nameUz": "Bo`z tumani",
    "admincenterRu": "гп Боз",
    "admincenterUz": "Bo`z shaharchasi",
    "rem": null,
    "isdeleted": 0,
    "areacode2": "05"
  },
  {
    "areaid": "1703210",
    "regionid": "1703",
    "areacode": "210",
    "areatype": null,
    "nameRu": "Булакбашинский район",
    "nameUz": "Buloqboshi tumani",
    "admincenterRu": "гп Булокбоши",
    "admincenterUz": "Buloqboshi shaharchasi",
    "rem": null,
    "isdeleted": 0,
    "areacode2": "04"
  },
  {
    "areaid": "1703211",
    "regionid": "1703",
    "areacode": "211",
    "areatype": null,
    "nameRu": "Джалалкудукский район",
    "nameUz": "Jalolquduq tumani",
    "admincenterRu": "г.Ахунбабаев",
    "admincenterUz": "Oxunboboyev sh.",
    "rem": null,
    "isdeleted": 0,
    "areacode2": "06"
  },
  {
    "areaid": "1703214",
    "regionid": "1703",
    "areacode": "214",
    "areatype": null,
    "nameRu": "Избасканский район",
    "nameUz": "Izboskan tumani",
    "admincenterRu": "г.Пайтуг",
    "admincenterUz": "Paytug sh.",
    "rem": null,
    "isdeleted": 0,
    "areacode2": "07"
  },
  {
    "areaid": "1703217",
    "regionid": "1703",
    "areacode": "217",
    "areatype": null,
    "nameRu": "Улугноpский район",
    "nameUz": "Ulug`nor tumani",
    "admincenterRu": "гп Ок-олтин",
    "admincenterUz": "Oq oltin shaharchasi",
    "rem": null,
    "isdeleted": 0,
    "areacode2": "11"
  },
  {
    "areaid": "1703220",
    "regionid": "1703",
    "areacode": "220",
    "areatype": null,
    "nameRu": "Кургантепинский район",
    "nameUz": "Qo`rg`ontepa tumani",
    "admincenterRu": "г.Кургантепа",
    "admincenterUz": "Qo`rg`ontepa sh.",
    "rem": null,
    "isdeleted": 0,
    "areacode2": "14"
  },
  {
    "areaid": "1703224",
    "regionid": "1703",
    "areacode": "224",
    "areatype": null,
    "nameRu": "Асакинский район",
    "nameUz": "Asaka tumani",
    "admincenterRu": "г.Асака",
    "admincenterUz": "Asaka sh.",
    "rem": null,
    "isdeleted": 0,
    "areacode2": "02"
  },
  {
    "areaid": "1703227",
    "regionid": "1703",
    "areacode": "227",
    "areatype": null,
    "nameRu": "Мархаматский район",
    "nameUz": "Marxamat tumani",
    "admincenterRu": "г.Мархамат",
    "admincenterUz": "Marxamat sh.",
    "rem": null,
    "isdeleted": 0,
    "areacode2": "08"
  },
  {
    "areaid": "1703230",
    "regionid": "1703",
    "areacode": "230",
    "areatype": null,
    "nameRu": "Шахриханский район",
    "nameUz": "Shaxrixon tumani",
    "admincenterRu": "г.Шахрихан",
    "admincenterUz": "Shaxrixon sh.",
    "rem": null,
    "isdeleted": 0,
    "areacode2": "18"
  },
  {
    "areaid": "1703232",
    "regionid": "1703",
    "areacode": "232",
    "areatype": null,
    "nameRu": "Пахтаабадский район",
    "nameUz": "Paxtaobod tumani",
    "admincenterRu": "г.Пахтаабад",
    "admincenterUz": "Paxtaobod sh.",
    "rem": null,
    "isdeleted": 0,
    "areacode2": "10"
  },
  {
    "areaid": "1703236",
    "regionid": "1703",
    "areacode": "236",
    "areatype": null,
    "nameRu": "Ходжаабадский район",
    "nameUz": "Xo`jaobod tumani",
    "admincenterRu": "г.Ходжаабад",
    "admincenterUz": "Xo`jaobod sh.",
    "rem": null,
    "isdeleted": 0,
    "areacode2": "12"
  },
  {
    "areaid": "1703401",
    "regionid": "1703",
    "areacode": "401",
    "areatype": null,
    "nameRu": "Андижан",
    "nameUz": "Andijon",
    "admincenterRu": null,
    "admincenterUz": null,
    "rem": null,
    "isdeleted": 0,
    "areacode2": "15"
  },
  {
    "areaid": "1706204",
    "regionid": "1706",
    "areacode": "204",
    "areatype": null,
    "nameRu": "Алатский район",
    "nameUz": "Olot tumani",
    "admincenterRu": "г.Алат",
    "admincenterUz": "Olot sh.",
    "rem": null,
    "isdeleted": 0,
    "areacode2": "05"
  },
  {
    "areaid": "1706207",
    "regionid": "1706",
    "areacode": "207",
    "areatype": null,
    "nameRu": "Бухарский район",
    "nameUz": "Buxoro tumani",
    "admincenterRu": "г. Галлаасия",
    "admincenterUz": "Gala Osiyo shaharchasi",
    "rem": null,
    "isdeleted": 0,
    "areacode2": "01"
  },
  {
    "areaid": "1706212",
    "regionid": "1706",
    "areacode": "212",
    "areatype": null,
    "nameRu": "Вабкентский район",
    "nameUz": "Vobkent tumani",
    "admincenterRu": "г. Вабкент",
    "admincenterUz": "Vobkent sh.",
    "rem": null,
    "isdeleted": 0,
    "areacode2": "02"
  },
  {
    "areaid": "1706219",
    "regionid": "1706",
    "areacode": "219",
    "areatype": null,
    "nameRu": "Каганский район",
    "nameUz": "Kogon tumani",
    "admincenterRu": "г. Каган",
    "admincenterUz": "Kogon sh.",
    "rem": null,
    "isdeleted": 0,
    "areacode2": "04"
  },
  {
    "areaid": "1706230",
    "regionid": "1706",
    "areacode": "230",
    "areatype": null,
    "nameRu": "Каракульский район",
    "nameUz": "Qorako`l tumani",
    "admincenterRu": "г. Каракуль",
    "admincenterUz": "Qorako`l sh.",
    "rem": null,
    "isdeleted": 0,
    "areacode2": "10"
  },
  {
    "areaid": "1706232",
    "regionid": "1706",
    "areacode": "232",
    "areatype": null,
    "nameRu": "Караулбазарский район",
    "nameUz": "Qorovulbozor tumani",
    "admincenterRu": "г. Каpаулбазаp",
    "admincenterUz": "Qorovulbozor sh.",
    "rem": null,
    "isdeleted": 0,
    "areacode2": "09"
  },
  {
    "areaid": "1706240",
    "regionid": "1706",
    "areacode": "240",
    "areatype": null,
    "nameRu": "Пешкунский район",
    "nameUz": "Peshku tumani",
    "admincenterRu": "гп Янгибозор",
    "admincenterUz": "Yangibozor shaharchasi",
    "rem": null,
    "isdeleted": 0,
    "areacode2": "06"
  },
  {
    "areaid": "1706242",
    "regionid": "1706",
    "areacode": "242",
    "areatype": null,
    "nameRu": "Ромитанский район",
    "nameUz": "Romitan tumani",
    "admincenterRu": "г. Ромитан",
    "admincenterUz": "Romitan sh.",
    "rem": null,
    "isdeleted": 0,
    "areacode2": "07"
  },
  {
    "areaid": "1706246",
    "regionid": "1706",
    "areacode": "246",
    "areatype": null,
    "nameRu": "Жондоpский район",
    "nameUz": "Jondor tumani",
    "admincenterRu": "гп Жондор",
    "admincenterUz": "Jondor shaharchasi",
    "rem": null,
    "isdeleted": 0,
    "areacode2": "03"
  },
  {
    "areaid": "1706258",
    "regionid": "1706",
    "areacode": "258",
    "areatype": null,
    "nameRu": "Шафирканский район",
    "nameUz": "Shofirkon tumani",
    "admincenterRu": "г. Шафиркан",
    "admincenterUz": "Shofirkon sh.",
    "rem": null,
    "isdeleted": 0,
    "areacode2": "08"
  },
  {
    "areaid": "1706401",
    "regionid": "1706",
    "areacode": "401",
    "areatype": null,
    "nameRu": "Бухара",
    "nameUz": "Buxoro",
    "admincenterRu": null,
    "admincenterUz": null,
    "rem": null,
    "isdeleted": 0,
    "areacode2": "12"
  },
  {
    "areaid": "1706403",
    "regionid": "1706",
    "areacode": "403",
    "areatype": null,
    "nameRu": "Каган",
    "nameUz": "Kogon",
    "admincenterRu": null,
    "admincenterUz": null,
    "rem": null,
    "isdeleted": 0,
    "areacode2": "14"
  },
  {
    "areaid": "1708201",
    "regionid": "1708",
    "areacode": "201",
    "areatype": null,
    "nameRu": "Арнасайский район",
    "nameUz": "Arnasoy tumani",
    "admincenterRu": "гп Голиблаp",
    "admincenterUz": "G`oliblar shaharchasi",
    "rem": null,
    "isdeleted": 0,
    "areacode2": "01"
  },
  {
    "areaid": "1708204",
    "regionid": "1708",
    "areacode": "204",
    "areatype": null,
    "nameRu": "Бахмальский район",
    "nameUz": "Baxmal tumani",
    "admincenterRu": "гп Усмат",
    "admincenterUz": "O`smat shaharchasi",
    "rem": null,
    "isdeleted": 0,
    "areacode2": "02"
  },
  {
    "areaid": "1708209",
    "regionid": "1708",
    "areacode": "209",
    "areatype": null,
    "nameRu": "Галляаральский район",
    "nameUz": "G`allaorol tumani",
    "admincenterRu": "г. Галляарал",
    "admincenterUz": "G`allaorol sh.",
    "rem": null,
    "isdeleted": 0,
    "areacode2": "03"
  },
  {
    "areaid": "1708212",
    "regionid": "1708",
    "areacode": "212",
    "areatype": null,
    "nameRu": "Джизакский район",
    "nameUz": "Jizzax tumani",
    "admincenterRu": "гп Уч-тепа",
    "admincenterUz": "Uchtepa shaharchasi",
    "rem": null,
    "isdeleted": 0,
    "areacode2": "04"
  },
  {
    "areaid": "1708215",
    "regionid": "1708",
    "areacode": "215",
    "areatype": null,
    "nameRu": "Дустликский район",
    "nameUz": "Do`stlik tumani",
    "admincenterRu": "г. Дустлик",
    "admincenterUz": "Do`stlik sh.",
    "rem": null,
    "isdeleted": 0,
    "areacode2": "05"
  },
  {
    "areaid": "1708218",
    "regionid": "1708",
    "areacode": "218",
    "areatype": null,
    "nameRu": "Зааминский район",
    "nameUz": "Zomin tumani",
    "admincenterRu": "гп Заамин",
    "admincenterUz": "Zomin shaharchasi",
    "rem": null,
    "isdeleted": 0,
    "areacode2": "08"
  },
  {
    "areaid": "1708220",
    "regionid": "1708",
    "areacode": "220",
    "areatype": null,
    "nameRu": "Зарбдарский район",
    "nameUz": "Zarbdor tumani",
    "admincenterRu": "гп Зарбдар",
    "admincenterUz": "Zarbdor shaharchasi",
    "rem": null,
    "isdeleted": 0,
    "areacode2": "06"
  },
  {
    "areaid": "1708223",
    "regionid": "1708",
    "areacode": "223",
    "areatype": null,
    "nameRu": "Мирзачульский район",
    "nameUz": "Mirzacho`l tumani",
    "admincenterRu": "г. Гагарин",
    "admincenterUz": "Gagarin sh.",
    "rem": null,
    "isdeleted": 0,
    "areacode2": "09"
  },
  {
    "areaid": "1708228",
    "regionid": "1708",
    "areacode": "228",
    "areatype": null,
    "nameRu": "Пахтакорский район",
    "nameUz": "Paxtakor tumani",
    "admincenterRu": "г. Пахтакор",
    "admincenterUz": "Paxtakor sh.",
    "rem": null,
    "isdeleted": 0,
    "areacode2": "10"
  },
  {
    "areaid": "1708235",
    "regionid": "1708",
    "areacode": "235",
    "areatype": null,
    "nameRu": "Фаришский район",
    "nameUz": "Forish tumani",
    "admincenterRu": "гп Янгикишлак",
    "admincenterUz": "Yangiqishloq shaharchasi",
    "rem": null,
    "isdeleted": 0,
    "areacode2": "11"
  },
  {
    "areaid": "1708237",
    "regionid": "1708",
    "areacode": "237",
    "areatype": null,
    "nameRu": "Янгиободский район",
    "nameUz": "Yangiobod tumani",
    "admincenterRu": "нп Баландчакир",
    "admincenterUz": "Balandchaqir a.p.",
    "rem": null,
    "isdeleted": 0,
    "areacode2": "12"
  },
  {
    "areaid": "1708401",
    "regionid": "1708",
    "areacode": "401",
    "areatype": null,
    "nameRu": "Джизак",
    "nameUz": "Jizzax",
    "admincenterRu": null,
    "admincenterUz": null,
    "rem": null,
    "isdeleted": 0,
    "areacode2": "13"
  },
  {
    "areaid": "1710207",
    "regionid": "1710",
    "areacode": "207",
    "areatype": null,
    "nameRu": "Гузарский район",
    "nameUz": "G`uzor tumani",
    "admincenterRu": "г. Гузар",
    "admincenterUz": "G`uzor sh.",
    "rem": null,
    "isdeleted": 0,
    "areacode2": "14"
  },
  {
    "areaid": "1710212",
    "regionid": "1710",
    "areacode": "212",
    "areatype": null,
    "nameRu": "Дехканабадский район",
    "nameUz": "Dehqonobod tumani",
    "admincenterRu": "гп Корашина",
    "admincenterUz": "Karashina shaharchasi",
    "rem": null,
    "isdeleted": 0,
    "areacode2": "02"
  },
  {
    "areaid": "1710220",
    "regionid": "1710",
    "areacode": "220",
    "areatype": null,
    "nameRu": "Камашинский район",
    "nameUz": "Qamashi tumani",
    "admincenterRu": "г. Камаши",
    "admincenterUz": "Qamashi sh.",
    "rem": null,
    "isdeleted": 0,
    "areacode2": "12"
  },
  {
    "areaid": "1710224",
    "regionid": "1710",
    "areacode": "224",
    "areatype": null,
    "nameRu": "Каршинский район",
    "nameUz": "Qarshi tumani",
    "admincenterRu": "г. Бешкент",
    "admincenterUz": "Beshkent sh.",
    "rem": null,
    "isdeleted": 0,
    "areacode2": "13"
  },
  {
    "areaid": "1710229",
    "regionid": "1710",
    "areacode": "229",
    "areatype": null,
    "nameRu": "Касанский район",
    "nameUz": "Koson tumani",
    "admincenterRu": "г. Касан",
    "admincenterUz": "Koson sh.",
    "rem": null,
    "isdeleted": 0,
    "areacode2": "05"
  },
  {
    "areaid": "1710232",
    "regionid": "1710",
    "areacode": "232",
    "areatype": null,
    "nameRu": "Китабский район",
    "nameUz": "Kitob tumani",
    "admincenterRu": "г. Китаб",
    "admincenterUz": "Kitob sh.",
    "rem": null,
    "isdeleted": 0,
    "areacode2": "04"
  },
  {
    "areaid": "1710233",
    "regionid": "1710",
    "areacode": "233",
    "areatype": null,
    "nameRu": "Миришкорский район",
    "nameUz": "Mirishkor tumani",
    "admincenterRu": "гп Янги Миришкор",
    "admincenterUz": "Yangi Mirishkor shaharchasi",
    "rem": null,
    "isdeleted": 0,
    "areacode2": "01"
  },
  {
    "areaid": "1710234",
    "regionid": "1710",
    "areacode": "234",
    "areatype": null,
    "nameRu": "Мубарекский район",
    "nameUz": "Muborak tumani",
    "admincenterRu": "г. Мубарек",
    "admincenterUz": "Muborak sh.",
    "rem": null,
    "isdeleted": 0,
    "areacode2": "06"
  },
  {
    "areaid": "1710237",
    "regionid": "1710",
    "areacode": "237",
    "areatype": null,
    "nameRu": "Касбинский район",
    "nameUz": "Kasbi tumani",
    "admincenterRu": "гп Муглон",
    "admincenterUz": "Mug`lon shaharchasi",
    "rem": null,
    "isdeleted": 0,
    "areacode2": "03"
  },
  {
    "areaid": "1710242",
    "regionid": "1710",
    "areacode": "242",
    "areatype": null,
    "nameRu": "Чиракчинский район",
    "nameUz": "Chiroqchi tumani",
    "admincenterRu": "г. Чиракчи",
    "admincenterUz": "Chiroqchi sh.",
    "rem": null,
    "isdeleted": 0,
    "areacode2": "09"
  },
  {
    "areaid": "1710245",
    "regionid": "1710",
    "areacode": "245",
    "areatype": null,
    "nameRu": "Шахрисабзский район",
    "nameUz": "Shahrisabz tumani",
    "admincenterRu": "г. Шахрисабз",
    "admincenterUz": "Shahrisabz sh.",
    "rem": null,
    "isdeleted": 0,
    "areacode2": "10"
  },
  {
    "areaid": "1710250",
    "regionid": "1710",
    "areacode": "250",
    "areatype": null,
    "nameRu": "Яккабагский район",
    "nameUz": "Yakkabog` tumani",
    "admincenterRu": "г. Яккабаг",
    "admincenterUz": "Yakkabog` sh.",
    "rem": null,
    "isdeleted": 0,
    "areacode2": "11"
  },
  {
    "areaid": "1710401",
    "regionid": "1710",
    "areacode": "401",
    "areatype": null,
    "nameRu": "Карши",
    "nameUz": "Qarshi",
    "admincenterRu": null,
    "admincenterUz": null,
    "rem": null,
    "isdeleted": 0,
    "areacode2": "15"
  },
  {
    "areaid": "1712211",
    "regionid": "1712",
    "areacode": "211",
    "areatype": null,
    "nameRu": "Канимехский район",
    "nameUz": "Konimex tumani",
    "admincenterRu": "гп Канимех",
    "admincenterUz": "Konimex shaharchasi",
    "rem": null,
    "isdeleted": 0,
    "areacode2": "01"
  },
  {
    "areaid": "1712216",
    "regionid": "1712",
    "areacode": "216",
    "areatype": null,
    "nameRu": "Кызылтепинский район",
    "nameUz": "Qiziltepa tumani",
    "admincenterRu": "г. Кызылтепа",
    "admincenterUz": "Qiziltepa sh.",
    "rem": null,
    "isdeleted": 0,
    "areacode2": "08"
  },
  {
    "areaid": "1712230",
    "regionid": "1712",
    "areacode": "230",
    "areatype": null,
    "nameRu": "Навбахорский район",
    "nameUz": "Navbahor tumani",
    "admincenterRu": "нп Бешрабад",
    "admincenterUz": "Beshrabot a.p.",
    "rem": null,
    "isdeleted": 0,
    "areacode2": "02"
  },
  {
    "areaid": "1712234",
    "regionid": "1712",
    "areacode": "234",
    "areatype": null,
    "nameRu": "Карманинский район",
    "nameUz": "Karmana tumani",
    "admincenterRu": "гп Кармана",
    "admincenterUz": "Karmana shaharchasi",
    "rem": null,
    "isdeleted": 0,
    "areacode2": "03"
  },
  {
    "areaid": "1712238",
    "regionid": "1712",
    "areacode": "238",
    "areatype": null,
    "nameRu": "Нуратинский район",
    "nameUz": "Nurota tumani",
    "admincenterRu": "г. Нурата",
    "admincenterUz": "Nurota sh.",
    "rem": null,
    "isdeleted": 0,
    "areacode2": "04"
  },
  {
    "areaid": "1712248",
    "regionid": "1712",
    "areacode": "248",
    "areatype": null,
    "nameRu": "Учкудукский район",
    "nameUz": "Uchquduq tumani",
    "admincenterRu": "г. Учкудук",
    "admincenterUz": "Uchquduq sh.",
    "rem": null,
    "isdeleted": 0,
    "areacode2": "11"
  },
  {
    "areaid": "1712251",
    "regionid": "1712",
    "areacode": "251",
    "areatype": null,
    "nameRu": "Хатырчинский район",
    "nameUz": "Xatirchi tumani",
    "admincenterRu": "г. Янгирабод",
    "admincenterUz": "Yangirabod sh.",
    "rem": null,
    "isdeleted": 0,
    "areacode2": "07"
  },
  {
    "areaid": "1712401",
    "regionid": "1712",
    "areacode": "401",
    "areatype": null,
    "nameRu": "Навои",
    "nameUz": "Navoiy",
    "admincenterRu": null,
    "admincenterUz": null,
    "rem": null,
    "isdeleted": 0,
    "areacode2": "09"
  },
  {
    "areaid": "1712408",
    "regionid": "1712",
    "areacode": "408",
    "areatype": null,
    "nameRu": "Заpафшан",
    "nameUz": "Zarafshon",
    "admincenterRu": null,
    "admincenterUz": null,
    "rem": null,
    "isdeleted": 0,
    "areacode2": "10"
  },
  {
    "areaid": "1714204",
    "regionid": "1714",
    "areacode": "204",
    "areatype": null,
    "nameRu": "Мингбулакский pайон",
    "nameUz": "Mingbuloq tumani",
    "admincenterRu": "гп Джумашуй",
    "admincenterUz": "Jo`masho`y shaharchasi",
    "rem": null,
    "isdeleted": 0,
    "areacode2": "02"
  },
  {
    "areaid": "1714207",
    "regionid": "1714",
    "areacode": "207",
    "areatype": null,
    "nameRu": "Касансайский район",
    "nameUz": "Kosonsoy tumani",
    "admincenterRu": "г. Касансай",
    "admincenterUz": "Kosonsoy sh.",
    "rem": null,
    "isdeleted": 0,
    "areacode2": "01"
  },
  {
    "areaid": "1714212",
    "regionid": "1714",
    "areacode": "212",
    "areatype": null,
    "nameRu": "Наманганский район",
    "nameUz": "Namangan tumani",
    "admincenterRu": "гп Ташбулак",
    "admincenterUz": "Toshbuloq shaharchasi",
    "rem": null,
    "isdeleted": 0,
    "areacode2": "03"
  },
  {
    "areaid": "1714216",
    "regionid": "1714",
    "areacode": "216",
    "areatype": null,
    "nameRu": "Нарынский район",
    "nameUz": "Norin tumani",
    "admincenterRu": "г. Хаккулабад",
    "admincenterUz": "Xaqqulobod sh.",
    "rem": null,
    "isdeleted": 0,
    "areacode2": "04"
  },
  {
    "areaid": "1714219",
    "regionid": "1714",
    "areacode": "219",
    "areatype": null,
    "nameRu": "Папский район",
    "nameUz": "Pop tumani",
    "admincenterRu": "г. Пап",
    "admincenterUz": "Pop sh.",
    "rem": null,
    "isdeleted": 0,
    "areacode2": "05"
  },
  {
    "areaid": "1714224",
    "regionid": "1714",
    "areacode": "224",
    "areatype": null,
    "nameRu": "Туракурганский район",
    "nameUz": "To`raqo`rg`on tumani",
    "admincenterRu": "г. Туракурган",
    "admincenterUz": "To`raqo`rg`on sh.",
    "rem": null,
    "isdeleted": 0,
    "areacode2": "06"
  },
  {
    "areaid": "1714229",
    "regionid": "1714",
    "areacode": "229",
    "areatype": null,
    "nameRu": "Уйчинский район",
    "nameUz": "Uychi tumani",
    "admincenterRu": "гп Уйчи",
    "admincenterUz": "Uychi shaharchasi",
    "rem": null,
    "isdeleted": 0,
    "areacode2": "07"
  },
  {
    "areaid": "1714234",
    "regionid": "1714",
    "areacode": "234",
    "areatype": null,
    "nameRu": "Учкурганский район",
    "nameUz": "Uchqo`rg`on tumani",
    "admincenterRu": "г. Учкурган",
    "admincenterUz": "Uchqo`rg`on sh.",
    "rem": null,
    "isdeleted": 0,
    "areacode2": "08"
  },
  {
    "areaid": "1714236",
    "regionid": "1714",
    "areacode": "236",
    "areatype": null,
    "nameRu": "Чартакский район",
    "nameUz": "Chortoq tumani",
    "admincenterRu": "г. Чартак",
    "admincenterUz": "Chortoq sh.",
    "rem": null,
    "isdeleted": 0,
    "areacode2": "09"
  },
  {
    "areaid": "1714237",
    "regionid": "1714",
    "areacode": "237",
    "areatype": null,
    "nameRu": "Чустский район",
    "nameUz": "Chust tumani",
    "admincenterRu": "г. Чуст",
    "admincenterUz": "Chust sh.",
    "rem": null,
    "isdeleted": 0,
    "areacode2": "10"
  },
  {
    "areaid": "1714401",
    "regionid": "1714",
    "areacode": "401",
    "areatype": null,
    "nameRu": "Наманган",
    "nameUz": "Namangan",
    "admincenterRu": null,
    "admincenterUz": null,
    "rem": null,
    "isdeleted": 0,
    "areacode2": "12"
  },
  {
    "areaid": "1718203",
    "regionid": "1718",
    "areacode": "203",
    "areatype": null,
    "nameRu": "Акдарьинский район",
    "nameUz": "Oqdaryo tumani",
    "admincenterRu": "гп Лаиш",
    "admincenterUz": "Loyish shaharchasi",
    "rem": null,
    "isdeleted": 0,
    "areacode2": "08"
  },
  {
    "areaid": "1718206",
    "regionid": "1718",
    "areacode": "206",
    "areatype": null,
    "nameRu": "Булунгурский район",
    "nameUz": "Bulung`ur tumani",
    "admincenterRu": "г. Булунгур",
    "admincenterUz": "Bulung`ur sh.",
    "rem": null,
    "isdeleted": 0,
    "areacode2": "01"
  },
  {
    "areaid": "1718209",
    "regionid": "1718",
    "areacode": "209",
    "areatype": null,
    "nameRu": "Джамбайский район",
    "nameUz": "Jomboy tumani",
    "admincenterRu": "г. Джамбай",
    "admincenterUz": "Jomboy sh.",
    "rem": null,
    "isdeleted": 0,
    "areacode2": "02"
  },
  {
    "areaid": "1718212",
    "regionid": "1718",
    "areacode": "212",
    "areatype": null,
    "nameRu": "Иштыханский район",
    "nameUz": "Ishtixon tumani",
    "admincenterRu": "г. Иштыхан",
    "admincenterUz": "Ishtixon sh.",
    "rem": null,
    "isdeleted": 0,
    "areacode2": "03"
  },
  {
    "areaid": "1718215",
    "regionid": "1718",
    "areacode": "215",
    "areatype": null,
    "nameRu": "Каттакурганский район",
    "nameUz": "Kattaqo`rg`on tumani",
    "admincenterRu": "гп Пайшанба",
    "admincenterUz": "Payshanba shaharchasi",
    "rem": null,
    "isdeleted": 0,
    "areacode2": "05"
  },
  {
    "areaid": "1718216",
    "regionid": "1718",
    "areacode": "216",
    "areatype": null,
    "nameRu": "Кошрабадский район",
    "nameUz": "Qo`shrabot tumani",
    "admincenterRu": "гп Кушрабад",
    "admincenterUz": "Qo`shrabot shaharchasi",
    "rem": null,
    "isdeleted": 0,
    "areacode2": "04"
  },
  {
    "areaid": "1718218",
    "regionid": "1718",
    "areacode": "218",
    "areatype": null,
    "nameRu": "Нарпайский район",
    "nameUz": "Narpay tumani",
    "admincenterRu": "г. Акташ",
    "admincenterUz": "Oqtosh sh.",
    "rem": null,
    "isdeleted": 0,
    "areacode2": "06"
  },
  {
    "areaid": "1718224",
    "regionid": "1718",
    "areacode": "224",
    "areatype": null,
    "nameRu": "Пайарыкский район",
    "nameUz": "Payariq tumani",
    "admincenterRu": "г.Пайаpык",
    "admincenterUz": "Payariq sh.",
    "rem": null,
    "isdeleted": 0,
    "areacode2": "09"
  },
  {
    "areaid": "1718227",
    "regionid": "1718",
    "areacode": "227",
    "areatype": null,
    "nameRu": "Пастдаргомский район",
    "nameUz": "Pastdarg`om tumani",
    "admincenterRu": "г. Джума",
    "admincenterUz": "Juma sh.",
    "rem": null,
    "isdeleted": 0,
    "areacode2": "10"
  },
  {
    "areaid": "1718230",
    "regionid": "1718",
    "areacode": "230",
    "areatype": null,
    "nameRu": "Пахтачийский район",
    "nameUz": "Paxtachi tumani",
    "admincenterRu": "гп Зиатдин",
    "admincenterUz": "Ziyovuddin shaharchasi",
    "rem": null,
    "isdeleted": 0,
    "areacode2": "11"
  },
  {
    "areaid": "1718233",
    "regionid": "1718",
    "areacode": "233",
    "areatype": null,
    "nameRu": "Самаркандский район",
    "nameUz": "Samarqand tumani",
    "admincenterRu": "гп Гулабад",
    "admincenterUz": "Gulobod shaharchasi",
    "rem": null,
    "isdeleted": 0,
    "areacode2": "12"
  },
  {
    "areaid": "1718235",
    "regionid": "1718",
    "areacode": "235",
    "areatype": null,
    "nameRu": "Нурабадский район",
    "nameUz": "Nurobod tumani",
    "admincenterRu": "г. Нурабад",
    "admincenterUz": "Nurobod sh.",
    "rem": null,
    "isdeleted": 0,
    "areacode2": "07"
  },
  {
    "areaid": "1718236",
    "regionid": "1718",
    "areacode": "236",
    "areatype": null,
    "nameRu": "Ургутский район",
    "nameUz": "Urgut tumani",
    "admincenterRu": "г. Ургут",
    "admincenterUz": "Urgut sh.",
    "rem": null,
    "isdeleted": 0,
    "areacode2": "14"
  },
  {
    "areaid": "1718238",
    "regionid": "1718",
    "areacode": "238",
    "areatype": null,
    "nameRu": "Тайлякский район",
    "nameUz": "Tayloq tumani",
    "admincenterRu": "гп Тайлок",
    "admincenterUz": "Toyloq shaharchasi",
    "rem": null,
    "isdeleted": 0,
    "areacode2": "13"
  },
  {
    "areaid": "1718401",
    "regionid": "1718",
    "areacode": "401",
    "areatype": null,
    "nameRu": "Самарканд",
    "nameUz": "Samarqand",
    "admincenterRu": null,
    "admincenterUz": null,
    "rem": null,
    "isdeleted": 0,
    "areacode2": "16"
  },
  {
    "areaid": "1718406",
    "regionid": "1718",
    "areacode": "406",
    "areatype": null,
    "nameRu": "Каттакурган",
    "nameUz": "Kattaqo`rg`on",
    "admincenterRu": null,
    "admincenterUz": null,
    "rem": null,
    "isdeleted": 0,
    "areacode2": "15"
  },
  {
    "areaid": "1722201",
    "regionid": "1722",
    "areacode": "201",
    "areatype": null,
    "nameRu": "Алтынсайский район",
    "nameUz": "Oltinsoy tumani",
    "admincenterRu": "гп Корлик",
    "admincenterUz": "?орли?  ша?арчаси",
    "rem": null,
    "isdeleted": 0,
    "areacode2": "09"
  },
  {
    "areaid": "1722202",
    "regionid": "1722",
    "areacode": "202",
    "areatype": null,
    "nameRu": "Ангорский район",
    "nameUz": "Angor tumani",
    "admincenterRu": "гп Ангор",
    "admincenterUz": "Angor shaharchasi",
    "rem": null,
    "isdeleted": 0,
    "areacode2": "01"
  },
  {
    "areaid": "1722204",
    "regionid": "1722",
    "areacode": "204",
    "areatype": null,
    "nameRu": "Байсунский район",
    "nameUz": "Boysun tumani",
    "admincenterRu": "г. Байсун",
    "admincenterUz": "Boysun sh.",
    "rem": null,
    "isdeleted": 0,
    "areacode2": "03"
  },
  {
    "areaid": "1722210",
    "regionid": "1722",
    "areacode": "210",
    "areatype": null,
    "nameRu": "Денауский район",
    "nameUz": "Denov tumani",
    "admincenterRu": "г. Денау",
    "admincenterUz": "Denov sh.",
    "rem": null,
    "isdeleted": 0,
    "areacode2": "04"
  },
  {
    "areaid": "1726262",
    "regionid": "1726",
    "areacode": "262",
    "areatype": null,
    "nameRu": "Учтепинский район",
    "nameUz": "Uchtepa tumani",
    "admincenterRu": null,
    "admincenterUz": null,
    "rem": null,
    "isdeleted": 0,
    "areacode2": null
  },
  {
    "areaid": "1726264",
    "regionid": "1726",
    "areacode": "264",
    "areatype": null,
    "nameRu": "Бектемирский район",
    "nameUz": "Bektemir tumani",
    "admincenterRu": null,
    "admincenterUz": null,
    "rem": null,
    "isdeleted": 0,
    "areacode2": null
  },
  {
    "areaid": "1726266",
    "regionid": "1726",
    "areacode": "266",
    "areatype": null,
    "nameRu": "Юнусабадский район",
    "nameUz": "Yunusobod tumani",
    "admincenterRu": null,
    "admincenterUz": null,
    "rem": null,
    "isdeleted": 0,
    "areacode2": null
  },
  {
    "areaid": "1726269",
    "regionid": "1726",
    "areacode": "269",
    "areatype": null,
    "nameRu": "Мирзо-Улугбекский район",
    "nameUz": "Mirzo Ulug`bek tumani",
    "admincenterRu": null,
    "admincenterUz": null,
    "rem": null,
    "isdeleted": 0,
    "areacode2": null
  },
  {
    "areaid": "1726273",
    "regionid": "1726",
    "areacode": "273",
    "areatype": null,
    "nameRu": "Мирабадский район",
    "nameUz": "Mirobod tumani",
    "admincenterRu": null,
    "admincenterUz": null,
    "rem": null,
    "isdeleted": 0,
    "areacode2": null
  },
  {
    "areaid": "1726277",
    "regionid": "1726",
    "areacode": "277",
    "areatype": null,
    "nameRu": "Шайхантахурский район",
    "nameUz": "Shayxontoxur tumani",
    "admincenterRu": null,
    "admincenterUz": null,
    "rem": null,
    "isdeleted": 0,
    "areacode2": null
  },
  {
    "areaid": "1726280",
    "regionid": "1726",
    "areacode": "280",
    "areatype": null,
    "nameRu": "Алмазарский район",
    "nameUz": "Olmazor tumani",
    "admincenterRu": null,
    "admincenterUz": null,
    "rem": null,
    "isdeleted": 0,
    "areacode2": null
  },
  {
    "areaid": "1726283",
    "regionid": "1726",
    "areacode": "283",
    "areatype": null,
    "nameRu": "Сергелийский район",
    "nameUz": "Sirg`ali tumani",
    "admincenterRu": null,
    "admincenterUz": null,
    "rem": null,
    "isdeleted": 0,
    "areacode2": null
  },
  {
    "areaid": "1726287",
    "regionid": "1726",
    "areacode": "287",
    "areatype": null,
    "nameRu": "Яккасарайский район",
    "nameUz": "Yakkasaroy tumani",
    "admincenterRu": null,
    "admincenterUz": null,
    "rem": null,
    "isdeleted": 0,
    "areacode2": null
  },
  {
    "areaid": "1726290",
    "regionid": "1726",
    "areacode": "290",
    "areatype": null,
    "nameRu": "Яшнободский район",
    "nameUz": "Yashnobod tumani",
    "admincenterRu": null,
    "admincenterUz": null,
    "rem": null,
    "isdeleted": 0,
    "areacode2": null
  },
  {
    "areaid": "1726294",
    "regionid": "1726",
    "areacode": "294",
    "areatype": null,
    "nameRu": "Чиланзарский район",
    "nameUz": "Chilonzor tumani",
    "admincenterRu": null,
    "admincenterUz": null,
    "rem": null,
    "isdeleted": 0,
    "areacode2": null
  },
  {
    "areaid": "1726298",
    "regionid": "1726",
    "areacode": "298",
    "areatype": null,
    "nameRu": "Янгихаётский район",
    "nameUz": "Yangihayot tumani",
    "admincenterRu": null,
    "admincenterUz": null,
    "rem": null,
    "isdeleted": 0,
    "areacode2": null
  },
  {
    "areaid": "1722214",
    "regionid": "1722",
    "areacode": "214",
    "areatype": null,
    "nameRu": "Кумкурганский район",
    "nameUz": "Qumqo`rg`on tumani",
    "admincenterRu": "г. Кумкурган",
    "admincenterUz": "Qumqo`rg`on sh.",
    "rem": null,
    "isdeleted": 0,
    "areacode2": "07"
  },
  {
    "areaid": "1722215",
    "regionid": "1722",
    "areacode": "215",
    "areatype": null,
    "nameRu": "Кизирикский район",
    "nameUz": "Qiziriq tumani",
    "admincenterRu": "гп Сарик",
    "admincenterUz": "Sariq shaharchasi",
    "rem": null,
    "isdeleted": 0,
    "areacode2": "06"
  },
  {
    "areaid": "1722217",
    "regionid": "1722",
    "areacode": "217",
    "areatype": null,
    "nameRu": "Сариасийский район",
    "nameUz": "Sariosiyo tumani",
    "admincenterRu": "гп Сариасия",
    "admincenterUz": "Sariosiyo shaharchasi",
    "rem": null,
    "isdeleted": 0,
    "areacode2": "10"
  },
  {
    "areaid": "1722220",
    "regionid": "1722",
    "areacode": "220",
    "areatype": null,
    "nameRu": "Термезский район",
    "nameUz": "Termiz tumani",
    "admincenterRu": "гп Учкизил",
    "admincenterUz": "Uchqizil shaharchasi",
    "rem": null,
    "isdeleted": 0,
    "areacode2": "11"
  },
  {
    "areaid": "1722221",
    "regionid": "1722",
    "areacode": "221",
    "areatype": null,
    "nameRu": "Узунский район",
    "nameUz": "Uzun tumani",
    "admincenterRu": "гп Узун",
    "admincenterUz": "Uzun shaharchasi",
    "rem": null,
    "isdeleted": 0,
    "areacode2": "12"
  },
  {
    "areaid": "1722223",
    "regionid": "1722",
    "areacode": "223",
    "areatype": null,
    "nameRu": "Шерабадский район",
    "nameUz": "Sherobod tumani",
    "admincenterRu": "г. Шерабад",
    "admincenterUz": "Sherobod sh.",
    "rem": null,
    "isdeleted": 0,
    "areacode2": "13"
  },
  {
    "areaid": "1722226",
    "regionid": "1722",
    "areacode": "226",
    "areatype": null,
    "nameRu": "Шурчинский район",
    "nameUz": "Sho`rchi tumani",
    "admincenterRu": "г. Шурчи",
    "admincenterUz": "Sho`rchi sh.",
    "rem": null,
    "isdeleted": 0,
    "areacode2": "14"
  },
  {
    "areaid": "1722401",
    "regionid": "1722",
    "areacode": "401",
    "areatype": null,
    "nameRu": "Термез",
    "nameUz": "Termiz",
    "admincenterRu": null,
    "admincenterUz": null,
    "rem": null,
    "isdeleted": 0,
    "areacode2": "15"
  },
  {
    "areaid": "1724206",
    "regionid": "1724",
    "areacode": "206",
    "areatype": null,
    "nameRu": "Акалтынский район",
    "nameUz": "Oqoltin tumani",
    "admincenterRu": "гп Сардоба",
    "admincenterUz": "Sardoba shaharchasi",
    "rem": null,
    "isdeleted": 0,
    "areacode2": "04"
  },
  {
    "areaid": "1724212",
    "regionid": "1724",
    "areacode": "212",
    "areatype": null,
    "nameRu": "Баяутский район",
    "nameUz": "Boyovut tumani",
    "admincenterRu": "гп Баяут",
    "admincenterUz": "Boyovut shaharchasi",
    "rem": null,
    "isdeleted": 0,
    "areacode2": "01"
  },
  {
    "areaid": "1724220",
    "regionid": "1724",
    "areacode": "220",
    "areatype": null,
    "nameRu": "Гулистанский район",
    "nameUz": "Guliston tumani",
    "admincenterRu": "гп Дехканабад",
    "admincenterUz": "Dehqonobod shaharchasi",
    "rem": null,
    "isdeleted": 0,
    "areacode2": "02"
  },
  {
    "areaid": "1724226",
    "regionid": "1724",
    "areacode": "226",
    "areatype": null,
    "nameRu": "Сардобский район",
    "nameUz": "Sardoba tumani",
    "admincenterRu": "гп Пахтаабад",
    "admincenterUz": "Paxtaobod shaharchasi",
    "rem": null,
    "isdeleted": 0,
    "areacode2": "05"
  },
  {
    "areaid": "1724228",
    "regionid": "1724",
    "areacode": "228",
    "areatype": null,
    "nameRu": "Мирзаабадский район",
    "nameUz": "Mirzaobod tumani",
    "admincenterRu": "гп Навруз",
    "admincenterUz": "Navro`z shaharchasi",
    "rem": null,
    "isdeleted": 0,
    "areacode2": "03"
  },
  {
    "areaid": "1724231",
    "regionid": "1724",
    "areacode": "231",
    "areatype": null,
    "nameRu": "Сырдарьинский район",
    "nameUz": "Sirdaryo tumani",
    "admincenterRu": "г. Сырдарья",
    "admincenterUz": "Sirdaryo sh.",
    "rem": null,
    "isdeleted": 0,
    "areacode2": "07"
  },
  {
    "areaid": "1724235",
    "regionid": "1724",
    "areacode": "235",
    "areatype": null,
    "nameRu": "Хавастский район",
    "nameUz": "Xavast tumani",
    "admincenterRu": "гп Хаваст",
    "admincenterUz": "Hovos shaharchasi",
    "rem": null,
    "isdeleted": 0,
    "areacode2": "08"
  },
  {
    "areaid": "1724401",
    "regionid": "1724",
    "areacode": "401",
    "areatype": null,
    "nameRu": "Гулистан",
    "nameUz": "Guliston",
    "admincenterRu": null,
    "admincenterUz": null,
    "rem": null,
    "isdeleted": 0,
    "areacode2": "10"
  },
  {
    "areaid": "1724410",
    "regionid": "1724",
    "areacode": "410",
    "areatype": null,
    "nameRu": "Шиpин",
    "nameUz": "Shirin",
    "admincenterRu": null,
    "admincenterUz": null,
    "rem": null,
    "isdeleted": 0,
    "areacode2": "09"
  },
  {
    "areaid": "1724413",
    "regionid": "1724",
    "areacode": "413",
    "areatype": null,
    "nameRu": "Янгиеp",
    "nameUz": "Yangiyer",
    "admincenterRu": null,
    "admincenterUz": null,
    "rem": null,
    "isdeleted": 0,
    "areacode2": "11"
  },
  {
    "areaid": "1727206",
    "regionid": "1727",
    "areacode": "206",
    "areatype": null,
    "nameRu": "Аккурганский район",
    "nameUz": "Oqqo`rg`on tumani",
    "admincenterRu": "г. Аккурган",
    "admincenterUz": "Oqqo`rg`on sh.",
    "rem": null,
    "isdeleted": 0,
    "areacode2": "07"
  },
  {
    "areaid": "1727212",
    "regionid": "1727",
    "areacode": "212",
    "areatype": null,
    "nameRu": "Ахангаранский район",
    "nameUz": "Ohangaron tumani",
    "admincenterRu": "г. Ахангаран",
    "admincenterUz": "Ohangaron sh.",
    "rem": null,
    "isdeleted": 0,
    "areacode2": "08"
  },
  {
    "areaid": "1727220",
    "regionid": "1727",
    "areacode": "220",
    "areatype": null,
    "nameRu": "Бекабадский район",
    "nameUz": "Bekobod tumani",
    "admincenterRu": "гп Зафар",
    "admincenterUz": "Zafar shaharchasi",
    "rem": null,
    "isdeleted": 0,
    "areacode2": "01"
  },
  {
    "areaid": "1727224",
    "regionid": "1727",
    "areacode": "224",
    "areatype": null,
    "nameRu": "Бостанлыкский район",
    "nameUz": "Bo`stonliq tumani",
    "admincenterRu": "г. Газалкент",
    "admincenterUz": "G`azalkent sh.",
    "rem": null,
    "isdeleted": 0,
    "areacode2": "03"
  },
  {
    "areaid": "1727228",
    "regionid": "1727",
    "areacode": "228",
    "areatype": null,
    "nameRu": "Букинский район",
    "nameUz": "Bo`ka tumani",
    "admincenterRu": "г. Бука",
    "admincenterUz": "Bo`ka sh.",
    "rem": null,
    "isdeleted": 0,
    "areacode2": "02"
  },
  {
    "areaid": "1727233",
    "regionid": "1727",
    "areacode": "233",
    "areatype": null,
    "nameRu": "Куйичирчикский район",
    "nameUz": "Qiyichirchiq tumani",
    "admincenterRu": "г. Дустобод",
    "admincenterUz": "Do`stobod sh.",
    "rem": null,
    "isdeleted": 0,
    "areacode2": "06"
  },
  {
    "areaid": "1727237",
    "regionid": "1727",
    "areacode": "237",
    "areatype": null,
    "nameRu": "Зангиатинский район",
    "nameUz": "Zangiota tumani",
    "admincenterRu": "г.Келес",
    "admincenterUz": "Keles sh.",
    "rem": null,
    "isdeleted": 0,
    "areacode2": "04"
  },
  {
    "areaid": "1727248",
    "regionid": "1727",
    "areacode": "248",
    "areatype": null,
    "nameRu": "Кибрайский район",
    "nameUz": "Qibray tumani",
    "admincenterRu": "гп Кибрай",
    "admincenterUz": "Qibray shaharchasi",
    "rem": null,
    "isdeleted": 0,
    "areacode2": "05"
  },
  {
    "areaid": "1727249",
    "regionid": "1727",
    "areacode": "249",
    "areatype": null,
    "nameRu": "Паркентский район",
    "nameUz": "Parkent tumani",
    "admincenterRu": "г. Паркент",
    "admincenterUz": "Parkent sh.",
    "rem": null,
    "isdeleted": 0,
    "areacode2": "09"
  },
  {
    "areaid": "1727250",
    "regionid": "1727",
    "areacode": "250",
    "areatype": null,
    "nameRu": "Пскентский район",
    "nameUz": "Pskent tumani",
    "admincenterRu": "г. Пскент",
    "admincenterUz": "Pskent sh.",
    "rem": null,
    "isdeleted": 0,
    "areacode2": "10"
  },
  {
    "areaid": "1727253",
    "regionid": "1727",
    "areacode": "253",
    "areatype": null,
    "nameRu": "Уртачирчикский район",
    "nameUz": "O`rtachirchiq tumani",
    "admincenterRu": "г. Тойтепа",
    "admincenterUz": "To`ytepa sh.",
    "rem": null,
    "isdeleted": 0,
    "areacode2": "12"
  },
  {
    "areaid": "1727256",
    "regionid": "1727",
    "areacode": "256",
    "areatype": null,
    "nameRu": "Чиназский район",
    "nameUz": "Chinoz tumani",
    "admincenterRu": "г. Чиназ",
    "admincenterUz": "Chinoz sh.",
    "rem": null,
    "isdeleted": 0,
    "areacode2": "13"
  },
  {
    "areaid": "1727259",
    "regionid": "1727",
    "areacode": "259",
    "areatype": null,
    "nameRu": "Янгиюльский район",
    "nameUz": "Yangiyo`l tumani",
    "admincenterRu": "г.Янгиюль",
    "admincenterUz": "Yangiyo`l sh.",
    "rem": null,
    "isdeleted": 0,
    "areacode2": "15"
  },
  {
    "areaid": "1727404",
    "regionid": "1727",
    "areacode": "404",
    "areatype": null,
    "nameRu": "Алмалык",
    "nameUz": "Olmaliq",
    "admincenterRu": null,
    "admincenterUz": null,
    "rem": null,
    "isdeleted": 0,
    "areacode2": "18"
  },
  {
    "areaid": "1727407",
    "regionid": "1727",
    "areacode": "407",
    "areatype": null,
    "nameRu": "Ангрен",
    "nameUz": "Angren",
    "admincenterRu": null,
    "admincenterUz": null,
    "rem": null,
    "isdeleted": 0,
    "areacode2": "16"
  },
  {
    "areaid": "1727413",
    "regionid": "1727",
    "areacode": "413",
    "areatype": null,
    "nameRu": "Бекабад",
    "nameUz": "Bekobod",
    "admincenterRu": null,
    "admincenterUz": null,
    "rem": null,
    "isdeleted": 0,
    "areacode2": "17"
  },
  {
    "areaid": "1727419",
    "regionid": "1727",
    "areacode": "419",
    "areatype": null,
    "nameRu": "Чиpчик",
    "nameUz": "Chirchiq",
    "admincenterRu": null,
    "admincenterUz": null,
    "rem": null,
    "isdeleted": 0,
    "areacode2": "20"
  },
  {
    "areaid": "1730203",
    "regionid": "1730",
    "areacode": "203",
    "areatype": null,
    "nameRu": "Алтыарыкский район",
    "nameUz": "Oltiariq tumani",
    "admincenterRu": "гп Алтыарык",
    "admincenterUz": "Oltiariq shaharchasi",
    "rem": null,
    "isdeleted": 0,
    "areacode2": "07"
  },
  {
    "areaid": "1730206",
    "regionid": "1730",
    "areacode": "206",
    "areatype": null,
    "nameRu": "Куштепинский район",
    "nameUz": "Qo`shtepa tumani",
    "admincenterRu": "нп Лангар",
    "admincenterUz": "Langar a.p.",
    "rem": null,
    "isdeleted": 0,
    "areacode2": "08"
  },
  {
    "areaid": "1730209",
    "regionid": "1730",
    "areacode": "209",
    "areatype": null,
    "nameRu": "Багдадский район",
    "nameUz": "Bog`dod tumani",
    "admincenterRu": "гп Багдад",
    "admincenterUz": "Bog`dod shaharchasi",
    "rem": null,
    "isdeleted": 0,
    "areacode2": "01"
  },
  {
    "areaid": "1730212",
    "regionid": "1730",
    "areacode": "212",
    "areatype": null,
    "nameRu": "Бувайдинский район",
    "nameUz": "Buvayda tumani",
    "admincenterRu": "гп Ибрат",
    "admincenterUz": "Ibrat shaharchasi",
    "rem": null,
    "isdeleted": 0,
    "areacode2": "03"
  },
  {
    "areaid": "1730215",
    "regionid": "1730",
    "areacode": "215",
    "areatype": null,
    "nameRu": "Бешарыкский район",
    "nameUz": "Beshariq tumani",
    "admincenterRu": "г. Бешарык",
    "admincenterUz": "Beshariq sh.",
    "rem": null,
    "isdeleted": 0,
    "areacode2": "02"
  },
  {
    "areaid": "1735204",
    "regionid": "1735",
    "areacode": "204",
    "areatype": null,
    "nameRu": "Амударьинский район",
    "nameUz": "Amudaryo tumani",
    "admincenterRu": "г. Мангит",
    "admincenterUz": "Mang`it sh.",
    "rem": null,
    "isdeleted": 0,
    "areacode2": "01"
  },
  {
    "areaid": "1735207",
    "regionid": "1735",
    "areacode": "207",
    "areatype": null,
    "nameRu": "Берунийский район",
    "nameUz": "Beruniy tumani",
    "admincenterRu": "г. Беруни",
    "admincenterUz": "Beruniy sh.",
    "rem": null,
    "isdeleted": 0,
    "areacode2": "02"
  },
  {
    "areaid": "1735211",
    "regionid": "1735",
    "areacode": "211",
    "areatype": null,
    "nameRu": "Караузякский район",
    "nameUz": "Qorao`zak tumani",
    "admincenterRu": "гп Караузяк",
    "admincenterUz": "Qorao`zak shaharchasi",
    "rem": null,
    "isdeleted": 0,
    "areacode2": "14"
  },
  {
    "areaid": "1735212",
    "regionid": "1735",
    "areacode": "212",
    "areatype": null,
    "nameRu": "Кегейлийский район",
    "nameUz": "Kegeyli tumani",
    "admincenterRu": "гп Кегейли",
    "admincenterUz": "Kegeyli shaharchasi",
    "rem": null,
    "isdeleted": 0,
    "areacode2": "04"
  },
  {
    "areaid": "1735215",
    "regionid": "1735",
    "areacode": "215",
    "areatype": null,
    "nameRu": "Кунградский район",
    "nameUz": "Qo`ng`irot tumani",
    "admincenterRu": "г. Кунград",
    "admincenterUz": "Qo`ng`irot sh.",
    "rem": null,
    "isdeleted": 0,
    "areacode2": "15"
  },
  {
    "areaid": "1735218",
    "regionid": "1735",
    "areacode": "218",
    "areatype": null,
    "nameRu": "Канлыкульский район",
    "nameUz": "Qanliko`l tumani",
    "admincenterRu": "гп Канлыкуль",
    "admincenterUz": "Qanliko`l shaharchasi",
    "rem": null,
    "isdeleted": 0,
    "areacode2": "13"
  },
  {
    "areaid": "1735222",
    "regionid": "1735",
    "areacode": "222",
    "areatype": null,
    "nameRu": "Муйнакский район",
    "nameUz": "Mo`ynoq tumani",
    "admincenterRu": "г. Муйнак",
    "admincenterUz": "Mo`ynoq sh.",
    "rem": null,
    "isdeleted": 0,
    "areacode2": "05"
  },
  {
    "areaid": "1735225",
    "regionid": "1735",
    "areacode": "225",
    "areatype": null,
    "nameRu": "Нукусский район",
    "nameUz": "Nukus tumani",
    "admincenterRu": "гп Акмангит",
    "admincenterUz": "Oqmang`it shaharchasi",
    "rem": null,
    "isdeleted": 0,
    "areacode2": "06"
  },
  {
    "areaid": "1735230",
    "regionid": "1735",
    "areacode": "230",
    "areatype": null,
    "nameRu": "Тахтакупырский район",
    "nameUz": "Taxtako`pir tumani",
    "admincenterRu": "гп Тахтакупыр",
    "admincenterUz": "Taxtako`pir shaharchasi",
    "rem": null,
    "isdeleted": 0,
    "areacode2": "07"
  },
  {
    "areaid": "1735233",
    "regionid": "1735",
    "areacode": "233",
    "areatype": null,
    "nameRu": "Турткульский район",
    "nameUz": "To`rtko`l tumani",
    "admincenterRu": "г. Турткуль",
    "admincenterUz": "To`rtko`l sh.",
    "rem": null,
    "isdeleted": 0,
    "areacode2": "08"
  },
  {
    "areaid": "1735236",
    "regionid": "1735",
    "areacode": "236",
    "areatype": null,
    "nameRu": "Ходжейлийский район",
    "nameUz": "Xo`jayli tumani",
    "admincenterRu": "г. Ходжейли",
    "admincenterUz": "Xo`jayli sh.",
    "rem": null,
    "isdeleted": 0,
    "areacode2": "09"
  },
  {
    "areaid": "1735240",
    "regionid": "1735",
    "areacode": "240",
    "areatype": null,
    "nameRu": "Чимбайский район",
    "nameUz": "Chimboy tumani",
    "admincenterRu": "г. Чимбай",
    "admincenterUz": "Chimboy sh.",
    "rem": null,
    "isdeleted": 0,
    "areacode2": "10"
  },
  {
    "areaid": "1735243",
    "regionid": "1735",
    "areacode": "243",
    "areatype": null,
    "nameRu": "Шуманайский район",
    "nameUz": "Shumanay tumani",
    "admincenterRu": "г. Шуманай",
    "admincenterUz": "Shumanay sh.",
    "rem": null,
    "isdeleted": 0,
    "areacode2": "11"
  },
  {
    "areaid": "1735250",
    "regionid": "1735",
    "areacode": "250",
    "areatype": null,
    "nameRu": "Элликкалинский район",
    "nameUz": "Ellikkala tumani",
    "admincenterRu": "г. Бустан",
    "admincenterUz": "Bo`ston sh.",
    "rem": null,
    "isdeleted": 0,
    "areacode2": "12"
  },
  {
    "areaid": "1703202",
    "regionid": "1703",
    "areacode": "202",
    "areatype": null,
    "nameRu": "Алтынкульский район",
    "nameUz": "Oltinko`l tumani",
    "admincenterRu": "нп Алтынкуль",
    "admincenterUz": "Oltinko`l a.p.",
    "rem": null,
    "isdeleted": 0,
    "areacode2": "09"
  },
  {
    "areaid": "1706215",
    "regionid": "1706",
    "areacode": "215",
    "areatype": null,
    "nameRu": "Гиждуванский район",
    "nameUz": "G`ijduvon tumani",
    "admincenterRu": "г. Гиждуван",
    "admincenterUz": "G`ijduvon sh.",
    "rem": null,
    "isdeleted": 0,
    "areacode2": "11"
  },
  {
    "areaid": "1708225",
    "regionid": "1708",
    "areacode": "225",
    "areatype": null,
    "nameRu": "Зафарабадский район",
    "nameUz": "Zafarobod tumani",
    "admincenterRu": "гп Зафарабад",
    "admincenterUz": "Zafarobod shaharchasi",
    "rem": null,
    "isdeleted": 0,
    "areacode2": "07"
  },
  {
    "areaid": "1710235",
    "regionid": "1710",
    "areacode": "235",
    "areatype": null,
    "nameRu": "Нишанский район",
    "nameUz": "Nishon tumani",
    "admincenterRu": "г. Янги-Нишан",
    "admincenterUz": "Yangi Nishon sh.",
    "rem": null,
    "isdeleted": 0,
    "areacode2": "07"
  },
  {
    "areaid": "1712244",
    "regionid": "1712",
    "areacode": "244",
    "areatype": null,
    "nameRu": "Тамдынский район",
    "nameUz": "Tomdi tumani",
    "admincenterRu": "гп Томдибулок",
    "admincenterUz": "Tomdibuloq shaharchasi",
    "rem": null,
    "isdeleted": 0,
    "areacode2": "06"
  },
  {
    "areaid": "1714242",
    "regionid": "1714",
    "areacode": "242",
    "areatype": null,
    "nameRu": "Янгикурганский район",
    "nameUz": "Yangiqo`rg`on tumani",
    "admincenterRu": "гп Янгикурган",
    "admincenterUz": "Yangiqo`rg`on shaharchasi",
    "rem": null,
    "isdeleted": 0,
    "areacode2": "11"
  },
  {
    "areaid": "1722207",
    "regionid": "1722",
    "areacode": "207",
    "areatype": null,
    "nameRu": "Музрабадский район",
    "nameUz": "Muzrabot tumani",
    "admincenterRu": "гп Халкабад",
    "admincenterUz": "Xalqobod shaharchasi",
    "rem": null,
    "isdeleted": 0,
    "areacode2": "08"
  },
  {
    "areaid": "1722212",
    "regionid": "1722",
    "areacode": "212",
    "areatype": null,
    "nameRu": "Джаркурганский район",
    "nameUz": "Jarqo`rg`on tumani",
    "admincenterRu": "г. Джаркурган",
    "admincenterUz": "Jarqo`rg`on sh.",
    "rem": null,
    "isdeleted": 0,
    "areacode2": "05"
  },
  {
    "areaid": "1724216",
    "regionid": "1724",
    "areacode": "216",
    "areatype": null,
    "nameRu": "Сайхунабадский район",
    "nameUz": "Sayxunobod tumani",
    "admincenterRu": "гп Сайхун",
    "admincenterUz": "Sayxun shaharcha",
    "rem": null,
    "isdeleted": 0,
    "areacode2": "06"
  },
  {
    "areaid": "1727239",
    "regionid": "1727",
    "areacode": "239",
    "areatype": null,
    "nameRu": "Юкоричирчикский район",
    "nameUz": "Yuqorichirchiq tumani",
    "admincenterRu": "гп Янгибазар",
    "admincenterUz": "Yangibozor shaharchasi",
    "rem": null,
    "isdeleted": 0,
    "areacode2": "14"
  },
  {
    "areaid": "1730221",
    "regionid": "1730",
    "areacode": "221",
    "areatype": null,
    "nameRu": "Учкуприкский район",
    "nameUz": "Uchko`prik tumani",
    "admincenterRu": "гп Учкуприк",
    "admincenterUz": "Uchko`prik shaharchasi",
    "rem": null,
    "isdeleted": 0,
    "areacode2": "12"
  },
  {
    "areaid": "1730224",
    "regionid": "1730",
    "areacode": "224",
    "areatype": null,
    "nameRu": "Риштанский район",
    "nameUz": "Rishton tumani",
    "admincenterRu": "г. Риштан",
    "admincenterUz": "Rishton sh.",
    "rem": null,
    "isdeleted": 0,
    "areacode2": "09"
  },
  {
    "areaid": "1730226",
    "regionid": "1730",
    "areacode": "226",
    "areatype": null,
    "nameRu": "Сохский район",
    "nameUz": "So`x tumani",
    "admincenterRu": "гп Равон",
    "admincenterUz": "Ravon shaharchasi",
    "rem": null,
    "isdeleted": 0,
    "areacode2": "29"
  },
  {
    "areaid": "1730227",
    "regionid": "1730",
    "areacode": "227",
    "areatype": null,
    "nameRu": "Ташлакский район",
    "nameUz": "Toshloq tumani",
    "admincenterRu": "гп Ташлак",
    "admincenterUz": "Toshloq shaharchasi",
    "rem": null,
    "isdeleted": 0,
    "areacode2": "11"
  },
  {
    "areaid": "1730230",
    "regionid": "1730",
    "areacode": "230",
    "areatype": null,
    "nameRu": "Узбекистанский район",
    "nameUz": "O`zbekiston tumani",
    "admincenterRu": "г. Яйпан",
    "admincenterUz": "Yaypan sh.",
    "rem": null,
    "isdeleted": 0,
    "areacode2": "15"
  },
  {
    "areaid": "1730233",
    "regionid": "1730",
    "areacode": "233",
    "areatype": null,
    "nameRu": "Ферганский район",
    "nameUz": "Farg`ona tumani",
    "admincenterRu": "гп Чимен",
    "admincenterUz": "Chimyon shaharchasi",
    "rem": null,
    "isdeleted": 0,
    "areacode2": "13"
  },
  {
    "areaid": "1730238",
    "regionid": "1730",
    "areacode": "238",
    "areatype": null,
    "nameRu": "Фуркатский район",
    "nameUz": "Furqat tumani",
    "admincenterRu": "гп Навбахор",
    "admincenterUz": "Navbahor shaharchasi",
    "rem": null,
    "isdeleted": 0,
    "areacode2": "14"
  },
  {
    "areaid": "1730242",
    "regionid": "1730",
    "areacode": "242",
    "areatype": null,
    "nameRu": "Язъяванский район",
    "nameUz": "Yozyovon tumani",
    "admincenterRu": "гп Язъяван",
    "admincenterUz": "Yozyovon shaharchasi",
    "rem": null,
    "isdeleted": 0,
    "areacode2": "05"
  },
  {
    "areaid": "1730401",
    "regionid": "1730",
    "areacode": "401",
    "areatype": null,
    "nameRu": "Фергана",
    "nameUz": "Farg`ona",
    "admincenterRu": null,
    "admincenterUz": null,
    "rem": null,
    "isdeleted": 0,
    "areacode2": "20"
  },
  {
    "areaid": "1730405",
    "regionid": "1730",
    "areacode": "405",
    "areatype": null,
    "nameRu": "Коканд",
    "nameUz": "Qo`qon",
    "admincenterRu": null,
    "admincenterUz": null,
    "rem": null,
    "isdeleted": 0,
    "areacode2": "16"
  },
  {
    "areaid": "1730408",
    "regionid": "1730",
    "areacode": "408",
    "areatype": null,
    "nameRu": "Кувасай",
    "nameUz": "Quvasoy",
    "admincenterRu": null,
    "admincenterUz": null,
    "rem": null,
    "isdeleted": 0,
    "areacode2": "18"
  },
  {
    "areaid": "1730412",
    "regionid": "1730",
    "areacode": "412",
    "areatype": null,
    "nameRu": "Маpгилан",
    "nameUz": "Marg`ilon",
    "admincenterRu": null,
    "admincenterUz": null,
    "rem": null,
    "isdeleted": 0,
    "areacode2": "19"
  },
  {
    "areaid": "1733204",
    "regionid": "1733",
    "areacode": "204",
    "areatype": null,
    "nameRu": "Багатский район",
    "nameUz": "Bog`ot tumani",
    "admincenterRu": "гп Багат",
    "admincenterUz": "Bog`ot shaharchasi",
    "rem": null,
    "isdeleted": 0,
    "areacode2": "01"
  },
  {
    "areaid": "1733208",
    "regionid": "1733",
    "areacode": "208",
    "areatype": null,
    "nameRu": "Гурленский район",
    "nameUz": "Gurlan tumani",
    "admincenterRu": "гп Гурлен",
    "admincenterUz": "Gurlan shaharchasi",
    "rem": null,
    "isdeleted": 0,
    "areacode2": "02"
  },
  {
    "areaid": "1733212",
    "regionid": "1733",
    "areacode": "212",
    "areatype": null,
    "nameRu": "Кошкупырский район",
    "nameUz": "Qo`shko`pir tumani",
    "admincenterRu": "гп Кошкупыр",
    "admincenterUz": "Qo`shko`pir shaharchasi",
    "rem": null,
    "isdeleted": 0,
    "areacode2": "09"
  },
  {
    "areaid": "1733217",
    "regionid": "1733",
    "areacode": "217",
    "areatype": null,
    "nameRu": "Ургенчский район",
    "nameUz": "Urganch tumani",
    "admincenterRu": "нп Караул",
    "admincenterUz": "Qoroul a.p.",
    "rem": null,
    "isdeleted": 0,
    "areacode2": "03"
  },
  {
    "areaid": "1733220",
    "regionid": "1733",
    "areacode": "220",
    "areatype": null,
    "nameRu": "Хазараспский район",
    "nameUz": "Xazorasp tumani",
    "admincenterRu": "гп Хазарасп",
    "admincenterUz": "Xazorasp shaharchasi",
    "rem": null,
    "isdeleted": 0,
    "areacode2": "10"
  },
  {
    "areaid": "1733223",
    "regionid": "1733",
    "areacode": "223",
    "areatype": null,
    "nameRu": "Ханкинский район",
    "nameUz": "Xonqa tumani",
    "admincenterRu": "гп Ханка",
    "admincenterUz": "Xonqa shaharchasi",
    "rem": null,
    "isdeleted": 0,
    "areacode2": "04"
  },
  {
    "areaid": "1733226",
    "regionid": "1733",
    "areacode": "226",
    "areatype": null,
    "nameRu": "Хивинский район",
    "nameUz": "Xiva tumani",
    "admincenterRu": "г. Хива",
    "admincenterUz": "Xiva sh.",
    "rem": null,
    "isdeleted": 0,
    "areacode2": "05"
  },
  {
    "areaid": "1733230",
    "regionid": "1733",
    "areacode": "230",
    "areatype": null,
    "nameRu": "Шаватский район",
    "nameUz": "Shovot tumani",
    "admincenterRu": "гп Шават",
    "admincenterUz": "Shovot shaharchasi",
    "rem": null,
    "isdeleted": 0,
    "areacode2": "06"
  },
  {
    "areaid": "1733233",
    "regionid": "1733",
    "areacode": "233",
    "areatype": null,
    "nameRu": "Янгиарыкский район",
    "nameUz": "Yangiariq tumani",
    "admincenterRu": "гп Янгиарык",
    "admincenterUz": "Yangiariq shaharchasi",
    "rem": null,
    "isdeleted": 0,
    "areacode2": "07"
  },
  {
    "areaid": "1733236",
    "regionid": "1733",
    "areacode": "236",
    "areatype": null,
    "nameRu": "Янгибазарский район",
    "nameUz": "Yangibozor tumani",
    "admincenterRu": "гп Янгибазар",
    "admincenterUz": "Yangibozor shaharchasi",
    "rem": null,
    "isdeleted": 0,
    "areacode2": "08"
  },
  {
    "areaid": "1733401",
    "regionid": "1733",
    "areacode": "401",
    "areatype": null,
    "nameRu": "Ургенч",
    "nameUz": "Urganch",
    "admincenterRu": null,
    "admincenterUz": null,
    "rem": null,
    "isdeleted": 0,
    "areacode2": "11"
  },
  {
    "areaid": "1730218",
    "regionid": "1730",
    "areacode": "218",
    "areatype": null,
    "nameRu": "Кувинский район",
    "nameUz": "Quva tumani",
    "admincenterRu": "г. Кува",
    "admincenterUz": "Quva sh.",
    "rem": null,
    "isdeleted": 0,
    "areacode2": "06"
  },
  {
    "areaid": "1730236",
    "regionid": "1730",
    "areacode": "236",
    "areatype": null,
    "nameRu": "Дангаринский район",
    "nameUz": "Dang`ara tumani",
    "admincenterRu": "гп Дангара",
    "admincenterUz": "Dang`ara shaharchasi",
    "rem": null,
    "isdeleted": 0,
    "areacode2": "04"
  },
  {
    "areaid": "1703408",
    "regionid": "1703",
    "areacode": "408",
    "areatype": null,
    "nameRu": "Ханабад",
    "nameUz": "Xonobod",
    "admincenterRu": null,
    "admincenterUz": null,
    "rem": null,
    "isdeleted": 0,
    "areacode2": "17"
  },
  {
    "areaid": "1735401",
    "regionid": "1735",
    "areacode": "401",
    "areatype": null,
    "nameRu": "Нукус",
    "nameUz": "Nukus",
    "admincenterRu": null,
    "admincenterUz": null,
    "rem": null,
    "isdeleted": 0,
    "areacode2": "18"
  }
]